METHANESAT              
1 59101U 24043D   25232.88337632  .00002414  00000+0  22214-3 0  9997
2 59101  97.8071 358.6700 0009684 295.2765  64.7452 14.95668142 79721
GOSAT-GW (IBUKI GW)     
1 64694U 25141A   25233.67034567  .00000644  00000+0  12181-3 0  9994
2 64694  98.0262 171.3399 0001381  86.0619 274.0744 14.67569324  7916
GHGSAT-C1               
1 46278U 20061G   25233.61574503  .00014482  00000+0  23719-3 0  9995
2 46278  97.2465 307.8359 0003308  84.9559 275.2072 15.52581719276735
GHGSAT-C12              
1 64529U 25135B   25232.78351915  .00005069  00000+0  25758-3 0  9994
2 64529  97.4523 346.3359 0006404 131.2005 228.9781 15.17302965  9226
GHGSAT-C13              
1 64548U 25135W   25233.26933224  .00002920  00000+0  14593-3 0  9996
2 64548  97.4547 346.9266 0002786  86.4256 273.7297 15.18247233  9300
GHGSAT-C2               
1 47509U 21006DA  25232.74337284  .00006771  00000+0  21436-3 0  9995
2 47509  97.2635 280.2355 0006612 153.4929 206.6653 15.33049421253743
GHGSAT-C3               
1 52737U 22057F   25233.61606999  .00005334  00000+0  19149-3 0  9992
2 52737  97.6205   4.9838 0007978 101.5591 258.6544 15.29102908179671
GHGSAT-C4               
1 52746U 22057Q   25232.91460567  .00006029  00000+0  21614-3 0  9995
2 52746  97.6132   3.3957 0008232  91.4164 268.8018 15.29087334179575
GHGSAT-C5               
1 52744U 22057N   25233.65096969  .00005616  00000+0  20153-3 0  9994
2 52744  97.6293   6.2456 0009018  98.3075 261.9188 15.29082791179683
GHGSAT-C6               
1 56204U 23054AC  25233.64855743  .00009119  00000+0  20880-3 0  9998
2 56204  97.3235 135.0403 0010766  61.6577 298.5755 15.42952380132114
GHGSAT-C7               
1 56209U 23054AH  25233.67548834  .00007577  00000+0  17913-3 0  9995
2 56209  97.3197 134.5668 0010633  54.7237 305.5004 15.42055421132118
GHGSAT-C8               
1 56186U 23054J   25233.62300095  .00009257  00000+0  21195-3 0  9993
2 56186  97.3205 134.4891 0008519  79.8775 280.3433 15.42971360132096
SENTINEL-5P             
1 42969U 17064A   25232.86233872  .00000047  00000+0  43375-4 0  9997
2 42969  98.7597 172.5663 0001221  75.9711 284.1600 14.19539353406951
ENMAP                   
1 52159U 22033C   25233.65561031  .00000339  00000+0  57926-4 0  9991
2 52159  97.9792 315.2040 0001349  89.6406 270.4958 14.74946590182502
PRISMA                  
1 44072U 19015A   25232.95710568 -.00000142  00000+0 -10797-4 0  9994
2 44072  97.8716 307.0416 0001424  95.1491 264.9885 14.83636000347533
SENTINEL-2A             
1 40697U 15028A   25233.63424890  .00000075  00000+0  45425-4 0  9998
2 40697  98.5658 307.7797 0001140  95.6826 264.4487 14.30815476530890
SENTINEL-2B             
1 42063U 17013A   25232.85788710  .00000083  00000+0  48356-4 0  9995
2 42063  98.5661 306.9576 0001257  95.0489 265.0837 14.30818740441699
SENTINEL-2C             
1 60989U 24157A   25232.82312546  .00000089  00000+0  50419-4 0  9995
2 60989  98.5650 306.9946 0001284  94.5095 265.6234 14.30817829 50030
LANDSAT 8               
1 39084U 13008A   25232.87082274  .00000304  00000+0  77476-4 0  9999
2 39084  98.2212 302.5360 0001186  93.3662 266.7672 14.57111225654161
LANDSAT 9               
1 49260U 21088A   25232.90519593  .00000309  00000+0  78631-4 0  9995
2 49260  98.2233 302.5773 0001122  96.7834 263.3492 14.57107625207275
TANAGER-1               
1 60507U 24149AR  25232.80317291  .00013205  00000+0  29453-3 0  9999
2 60507  97.3988 318.0802 0008844 227.1033 132.9474 15.43659703 56697
